start=new Date('2022-11-13T00:00:00.000Z').valueOf();
sats=[{"PERIOD":"95.437","SEMIMAJOR_AXIS":"6917.853","REF_FRAME":"TEME","MEAN_ELEMENT_THEORY":"SGP4","TIME_SYSTEM":"UTC","APOAPSIS":"541.263","NORAD_CAT_ID":"51786","PERIAPSIS":"538.174","TLE_LINE1":"1 51786U 22017U   22316.53605950  .00008598  00000-0  55751-3 0  9992","MEAN_MOTION_DOT":"0.00008598","MEAN_MOTION_DDOT":"0.0000000000000","COUNTRY_CODE":"US","CENTER_NAME":"EARTH","FILE":"3652392","OBJECT_ID":"2022-017U","OBJECT_NAME":"STARLINK-3638","INCLINATION":"53.2175","ELEMENT_SET_NO":"999","OBJECT_TYPE":"PAYLOAD","BSTAR":"0.00055751000000","ECCENTRICITY":"0.00022330","SITE":"AFWTR","LAUNCH_DATE":"2022-02-25","GP_ID":"217532882","TLE_LINE2":"2 51786  53.2175  35.1741 0002233  38.4867 321.6284 15.08848821 39136","MEAN_ANOMALY":"321.6284","RCS_SIZE":"LARGE","MEAN_MOTION":"15.08848821","EPHEMERIS_TYPE":"0","REV_AT_EPOCH":"3913","CLASSIFICATION_TYPE":"U","ARG_OF_PERICENTER":"38.4867","RA_OF_ASC_NODE":"35.1741","EPOCH":"2022-11-12T12:51:55.540800","DECAY_DATE":null},{"MEAN_MOTION":"15.08835047","REV_AT_EPOCH":"4080","EPHEMERIS_TYPE":"0","ARG_OF_PERICENTER":"40.2184","CLASSIFICATION_TYPE":"U","EPOCH":"2022-11-12T17:59:15.717408","DECAY_DATE":null,"RA_OF_ASC_NODE":"34.2192","SITE":"AFWTR","ECCENTRICITY":"0.00024570","GP_ID":"217564837","LAUNCH_DATE":"2022-02-25","MEAN_ANOMALY":"319.8990","TLE_LINE2":"2 51787  53.2185  34.2192 0002457  40.2184 319.8990 15.08835047 40804","RCS_SIZE":"LARGE","CENTER_NAME":"EARTH","COUNTRY_CODE":"US","MEAN_MOTION_DOT":"0.00002711","MEAN_MOTION_DDOT":"0.0000000000000","OBJECT_ID":"2022-017V","OBJECT_NAME":"STARLINK-3619","FILE":"3652592","ELEMENT_SET_NO":"999","OBJECT_TYPE":"PAYLOAD","BSTAR":"0.00018837000000","INCLINATION":"53.2185","SEMIMAJOR_AXIS":"6917.896","PERIOD":"95.438","APOAPSIS":"541.460","TIME_SYSTEM":"UTC","MEAN_ELEMENT_THEORY":"SGP4","REF_FRAME":"TEME","TLE_LINE1":"1 51787U 22017V   22316.74948747  .00002711  00000-0  18837-3 0  9995","PERIAPSIS":"538.061","NORAD_CAT_ID":"51787"},{"MEAN_MOTION_DOT":"0.00006248","MEAN_MOTION_DDOT":"0.0000000000000","COUNTRY_CODE":"US","CENTER_NAME":"EARTH","FILE":"3652392","OBJECT_NAME":"STARLINK-3641","OBJECT_ID":"2022-017W","INCLINATION":"53.2175","ELEMENT_SET_NO":"999","OBJECT_TYPE":"PAYLOAD","BSTAR":"0.00041038000000","PERIOD":"95.438","SEMIMAJOR_AXIS":"6917.891","MEAN_ELEMENT_THEORY":"SGP4","REF_FRAME":"TEME","TIME_SYSTEM":"UTC","APOAPSIS":"541.253","NORAD_CAT_ID":"51788","PERIAPSIS":"538.260","TLE_LINE1":"1 51788U 22017W   22316.52501305  .00006248  00000-0  41038-3 0  9995","MEAN_MOTION":"15.08836398","EPHEMERIS_TYPE":"0","REV_AT_EPOCH":"4077","CLASSIFICATION_TYPE":"U","ARG_OF_PERICENTER":"38.4843","RA_OF_ASC_NODE":"35.2397","EPOCH":"2022-11-12T12:36:01.127520","DECAY_DATE":null,"ECCENTRICITY":"0.00021630","SITE":"AFWTR","LAUNCH_DATE":"2022-02-25","GP_ID":"217531380","TLE_LINE2":"2 51788  53.2175  35.2397 0002163  38.4843 321.6303 15.08836398 40772","MEAN_ANOMALY":"321.6303","RCS_SIZE":"LARGE"},{"CLASSIFICATION_TYPE":"U","ARG_OF_PERICENTER":"34.5165","DECAY_DATE":null,"EPOCH":"2022-11-12T14:32:35.555712","RA_OF_ASC_NODE":"34.8652","MEAN_MOTION":"15.08846084","EPHEMERIS_TYPE":"0","REV_AT_EPOCH":"3914","MEAN_ANOMALY":"325.5985","TLE_LINE2":"2 51789  53.2185  34.8652 0002438  34.5165 325.5985 15.08846084 39143","RCS_SIZE":"LARGE","ECCENTRICITY":"0.00024380","SITE":"AFWTR","LAUNCH_DATE":"2022-02-25","GP_ID":"217588208","INCLINATION":"53.2185","BSTAR":"0.00035413000000","OBJECT_TYPE":"PAYLOAD","ELEMENT_SET_NO":"999","COUNTRY_CODE":"US","CENTER_NAME":"EARTH","MEAN_MOTION_DDOT":"0.0000000000000","MEAN_MOTION_DOT":"0.00005353","OBJECT_NAME":"STARLINK-3639","OBJECT_ID":"2022-017X","FILE":"3652635","APOAPSIS":"541.413","MEAN_ELEMENT_THEORY":"SGP4","REF_FRAME":"TEME","TIME_SYSTEM":"UTC","TLE_LINE1":"1 51789U 22017X   22316.60596708  .00005353  00000-0  35413-3 0  9992","NORAD_CAT_ID":"51789","PERIAPSIS":"538.040","PERIOD":"95.437","SEMIMAJOR_AXIS":"6917.862"},{"EPHEMERIS_TYPE":"0","REV_AT_EPOCH":"4083","MEAN_MOTION":"15.08851542","EPOCH":"2022-11-12T14:06:05.215104","DECAY_DATE":null,"RA_OF_ASC_NODE":"34.9617","CLASSIFICATION_TYPE":"U","ARG_OF_PERICENTER":"43.7520","LAUNCH_DATE":"2022-02-25","GP_ID":"217588960","ECCENTRICITY":"0.00019330","SITE":"AFWTR","RCS_SIZE":"LARGE","MEAN_ANOMALY":"316.3626","TLE_LINE2":"2 51790  53.2171  34.9617 0001933  43.7520 316.3626 15.08851542 40831","OBJECT_ID":"2022-017Y","OBJECT_NAME":"STARLINK-3631","FILE":"3652635","COUNTRY_CODE":"US","CENTER_NAME":"EARTH","MEAN_MOTION_DOT":"0.00008331","MEAN_MOTION_DDOT":"0.0000000000000","INCLINATION":"53.2171","BSTAR":"0.00054076000000","OBJECT_TYPE":"PAYLOAD","ELEMENT_SET_NO":"999","PERIOD":"95.437","SEMIMAJOR_AXIS":"6917.845","TLE_LINE1":"1 51790U 22017Y   22316.58756036  .00008331  00000-0  54076-3 0  9998","NORAD_CAT_ID":"51790","PERIAPSIS":"538.373","APOAPSIS":"541.047","MEAN_ELEMENT_THEORY":"SGP4","REF_FRAME":"TEME","TIME_SYSTEM":"UTC"},{"ARG_OF_PERICENTER":"38.4846","CLASSIFICATION_TYPE":"U","RA_OF_ASC_NODE":"34.8979","DECAY_DATE":null,"EPOCH":"2022-11-12T14:22:00.586560","MEAN_MOTION":"15.08857475","REV_AT_EPOCH":"4078","EPHEMERIS_TYPE":"0","TLE_LINE2":"2 51791  53.2174  34.8979 0002204  38.4846 321.6303 15.08857475 40785","MEAN_ANOMALY":"321.6303","RCS_SIZE":"LARGE","SITE":"AFWTR","ECCENTRICITY":"0.00022040","GP_ID":"217589201","LAUNCH_DATE":"2022-02-25","ELEMENT_SET_NO":"999","OBJECT_TYPE":"PAYLOAD","BSTAR":"0.00065094000000","INCLINATION":"53.2174","MEAN_MOTION_DDOT":"0.0000000000000","MEAN_MOTION_DOT":"0.00010092","CENTER_NAME":"EARTH","COUNTRY_CODE":"US","FILE":"3652635","OBJECT_ID":"2022-017Z","OBJECT_NAME":"STARLINK-3602","TIME_SYSTEM":"UTC","REF_FRAME":"TEME","MEAN_ELEMENT_THEORY":"SGP4","APOAPSIS":"541.217","PERIAPSIS":"538.167","NORAD_CAT_ID":"51791","TLE_LINE1":"1 51791U 22017Z   22316.59861790  .00010092  00000-0  65094-3 0  9993","SEMIMAJOR_AXIS":"6917.827","PERIOD":"95.436"},{"INCLINATION":"53.2179","ELEMENT_SET_NO":"999","OBJECT_TYPE":"PAYLOAD","BSTAR":"0.00160340000000","OBJECT_ID":"2022-017AA","OBJECT_NAME":"STARLINK-3626","FILE":"3652592","COUNTRY_CODE":"US","CENTER_NAME":"EARTH","MEAN_MOTION_DOT":"0.00025330","MEAN_MOTION_DDOT":"0.0000000000000","TLE_LINE1":"1 51792U 22017AA  22316.51396985  .00025330  00000-0  16034-2 0  9995","NORAD_CAT_ID":"51792","PERIAPSIS":"538.717","APOAPSIS":"540.707","MEAN_ELEMENT_THEORY":"SGP4","REF_FRAME":"TEME","TIME_SYSTEM":"UTC","PERIOD":"95.437","SEMIMAJOR_AXIS":"6917.847","DECAY_DATE":null,"EPOCH":"2022-11-12T12:20:06.995040","RA_OF_ASC_NODE":"35.2888","CLASSIFICATION_TYPE":"U","ARG_OF_PERICENTER":"58.1846","EPHEMERIS_TYPE":"0","REV_AT_EPOCH":"4082","MEAN_MOTION":"15.08850943","RCS_SIZE":"LARGE","MEAN_ANOMALY":"301.9286","TLE_LINE2":"2 51792  53.2179  35.2888 0001438  58.1846 301.9286 15.08850943 40821","GP_ID":"217564789","LAUNCH_DATE":"2022-02-25","ECCENTRICITY":"0.00014380","SITE":"AFWTR"},{"APOAPSIS":"541.166","REF_FRAME":"TEME","MEAN_ELEMENT_THEORY":"SGP4","TIME_SYSTEM":"UTC","TLE_LINE1":"1 51793U 22017AB  22316.59492570  .00002309  00000-0  16315-3 0  9995","NORAD_CAT_ID":"51793","PERIAPSIS":"538.336","PERIOD":"95.438","SEMIMAJOR_AXIS":"6917.886","INCLINATION":"53.2175","OBJECT_TYPE":"PAYLOAD","ELEMENT_SET_NO":"999","BSTAR":"0.00016315000000","COUNTRY_CODE":"US","CENTER_NAME":"EARTH","MEAN_MOTION_DDOT":"0.0000000000000","MEAN_MOTION_DOT":"0.00002309","OBJECT_NAME":"STARLINK-3633","OBJECT_ID":"2022-017AB","FILE":"3652635","MEAN_ANOMALY":"317.0181","TLE_LINE2":"2 51793  53.2175  34.9292 0002046  43.0971 317.0181 15.08838188 40831","RCS_SIZE":"LARGE","ECCENTRICITY":"0.00020460","SITE":"AFWTR","GP_ID":"217587708","LAUNCH_DATE":"2022-02-25","CLASSIFICATION_TYPE":"U","ARG_OF_PERICENTER":"43.0971","EPOCH":"2022-11-12T14:16:41.580480","DECAY_DATE":null,"RA_OF_ASC_NODE":"34.9292","MEAN_MOTION":"15.08838188","EPHEMERIS_TYPE":"0","REV_AT_EPOCH":"4083"},{"EPHEMERIS_TYPE":"0","REV_AT_EPOCH":"4076","MEAN_MOTION":"15.08852224","RA_OF_ASC_NODE":"35.6152","DECAY_DATE":null,"EPOCH":"2022-11-12T10:34:07.385664","CLASSIFICATION_TYPE":"U","ARG_OF_PERICENTER":"31.6494","LAUNCH_DATE":"2022-02-25","GP_ID":"217532883","ECCENTRICITY":"0.00022680","SITE":"AFWTR","RCS_SIZE":"LARGE","TLE_LINE2":"2 51794  53.2168  35.6152 0002268  31.6494 328.4635 15.08852224 40765","MEAN_ANOMALY":"328.4635","FILE":"3652392","OBJECT_ID":"2022-017AC","OBJECT_NAME":"STARLINK-3573","MEAN_MOTION_DOT":"0.00021001","MEAN_MOTION_DDOT":"0.0000000000000","COUNTRY_CODE":"US","CENTER_NAME":"EARTH","INCLINATION":"53.2168","OBJECT_TYPE":"PAYLOAD","ELEMENT_SET_NO":"999","BSTAR":"0.00133320000000","PERIOD":"95.437","SEMIMAJOR_AXIS":"6917.843","NORAD_CAT_ID":"51794","PERIAPSIS":"538.139","TLE_LINE1":"1 51794U 22017AC  22316.44036326  .00021001  00000-0  13332-2 0  9998","MEAN_ELEMENT_THEORY":"SGP4","REF_FRAME":"TEME","TIME_SYSTEM":"UTC","APOAPSIS":"541.277"},{"ECCENTRICITY":"0.00019870","SITE":"AFWTR","GP_ID":"217588701","LAUNCH_DATE":"2022-02-25","TLE_LINE2":"2 51795  53.2161  34.4103 0001987  40.6225 319.4915 15.08855244 40802","MEAN_ANOMALY":"319.4915","RCS_SIZE":"LARGE","MEAN_MOTION":"15.08855244","EPHEMERIS_TYPE":"0","REV_AT_EPOCH":"4080","CLASSIFICATION_TYPE":"U","ARG_OF_PERICENTER":"40.6225","RA_OF_ASC_NODE":"34.4103","DECAY_DATE":null,"EPOCH":"2022-11-12T17:00:58.181472","PERIOD":"95.437","SEMIMAJOR_AXIS":"6917.834","REF_FRAME":"TEME","MEAN_ELEMENT_THEORY":"SGP4","TIME_SYSTEM":"UTC","APOAPSIS":"541.073","NORAD_CAT_ID":"51795","PERIAPSIS":"538.324","TLE_LINE1":"1 51795U 22017AD  22316.70900673  .00009252  00000-0  59840-3 0  9992","MEAN_MOTION_DDOT":"0.0000000000000","MEAN_MOTION_DOT":"0.00009252","COUNTRY_CODE":"US","CENTER_NAME":"EARTH","FILE":"3652635","OBJECT_NAME":"STARLINK-3586","OBJECT_ID":"2022-017AD","INCLINATION":"53.2161","OBJECT_TYPE":"PAYLOAD","ELEMENT_SET_NO":"999","BSTAR":"0.00059840000000"}];
